[{"OBJECT_NAME":"STARLINK-6294","OBJECT_ID":"2023-094H","EPOCH":"2026-03-09T22:00:01.999584","MEAN_MOTION":15.1342379,"ECCENTRICITY":0.00018445,"INCLINATION":42.9999,"RA_OF_ASC_NODE":29.0134,"ARG_OF_PERICENTER":282.2673,"MEAN_ANOMALY":130.1632,"EPHEMERIS_TYPE":0,"CLASSIFICATION_TYPE":"U","NORAD_CAT_ID":57225,"ELEMENT_SET_NO":999,"REV_AT_EPOCH":577,"BSTAR":0.0042712641,"MEAN_MOTION_DOT":0.00078295,"MEAN_MOTION_DDOT":0},{"OBJECT_NAME":"CZ-6A DEB","OBJECT_ID":"2022-151KK","EPOCH":"2026-03-09T15:42:53.993376","MEAN_MOTION":15.13886585,"ECCENTRICITY":0.0019766,"INCLINATION":98.5478,"RA_OF_ASC_NODE":140.8365,"ARG_OF_PERICENTER":144.334,"MEAN_ANOMALY":215.9214,"EPHEMERIS_TYPE":0,"CLASSIFICATION_TYPE":"U","NORAD_CAT_ID":54531,"ELEMENT_SET_NO":999,"REV_AT_EPOCH":8393,"BSTAR":0.0066445138,"MEAN_MOTION_DOT":0.00122683,"MEAN_MOTION_DDOT":0}]
